{"fetched_at":"2026-07-12T17:33:03.536Z","source":"https://celestrak.org/NORAD/elements/gp.php?NAME=SENTINEL&FORMAT=JSON","constellation":"sentinel-5p","records":[{"OBJECT_NAME":"SENTINEL-5P","OBJECT_ID":"2017-064A","EPOCH":"2026-07-12T10:27:35.914176","CLASSIFICATION_TYPE":"U","MEAN_MOTION":14.19522987,"ECCENTRICITY":0.0001111,"INCLINATION":98.7929,"RA_OF_ASC_NODE":135.3883,"ARG_OF_PERICENTER":92.3746,"MEAN_ANOMALY":267.7558,"EPHEMERIS_TYPE":0,"NORAD_CAT_ID":42969,"ELEMENT_SET_NO":999,"REV_AT_EPOCH":45314,"BSTAR":0.000022523,"MEAN_MOTION_DOT":3e-8,"MEAN_MOTION_DDOT":0}]}
