SENTINEL-5P             
1 42969U 17064A   26193.43583234  .00000003  00000+0  22523-4 0  9991
2 42969  98.7929 135.3883 0001110  92.3746 267.7558 14.19522987453146
